start=new Date('2022-01-28T00:00:00.000Z').valueOf();
sats=[{"GP_ID":"194751445","SEMIMAJOR_AXIS":"6683.477","APOAPSIS":"323.085","OBJECT_NAME":"STARLINK-3357","REV_AT_EPOCH":"270","RCS_SIZE":null,"BSTAR":"-0.00296500000000","INCLINATION":"53.2177","MEAN_MOTION":"15.88909177","PERIAPSIS":"287.599","MEAN_ELEMENT_THEORY":"SGP4","MEAN_MOTION_DOT":"-0.00889523","DECAY_DATE":null,"RA_OF_ASC_NODE":"231.0408","MEAN_MOTION_DDOT":"0.0002404700000","EPOCH":"2022-01-27T22:00:00.999936","EPHEMERIS_TYPE":"0","FILE":"3285201","TLE_LINE1":"1 51150U 22005AY  22027.91667824 -.00889523  24047-3 -29650-2 0  9998","PERIOD":"90.628","ELEMENT_SET_NO":"999","ARG_OF_PERICENTER":"204.5192","COUNTRY_CODE":"US","SITE":"AFETR","OBJECT_TYPE":"PAYLOAD","MEAN_ANOMALY":"293.8336","NORAD_CAT_ID":"51150","REF_FRAME":"TEME","OBJECT_ID":"2022-005AY","TIME_SYSTEM":"UTC","LAUNCH_DATE":"2022-01-19","ECCENTRICITY":"0.00265480","CLASSIFICATION_TYPE":"U","CENTER_NAME":"EARTH","TLE_LINE2":"2 51150  53.2177 231.0408 0026548 204.5192 293.8336 15.88909177  2703"},{"REV_AT_EPOCH":"270","RCS_SIZE":null,"BSTAR":"-0.00294860000000","INCLINATION":"53.2177","GP_ID":"194754319","SEMIMAJOR_AXIS":"6683.274","OBJECT_NAME":"STARLINK-3361","APOAPSIS":"323.118","DECAY_DATE":null,"RA_OF_ASC_NODE":"231.0363","MEAN_MOTION_DDOT":"0.0002401900000","EPOCH":"2022-01-27T22:00:00.999936","MEAN_MOTION":"15.88981636","PERIAPSIS":"287.160","MEAN_ELEMENT_THEORY":"SGP4","MEAN_MOTION_DOT":"-0.00888627","PERIOD":"90.624","TLE_LINE1":"1 51151U 22005AZ  22027.91667824 -.00888627  24019-3 -29486-2 0  9999","ELEMENT_SET_NO":"999","ARG_OF_PERICENTER":"204.4149","COUNTRY_CODE":"US","SITE":"AFETR","EPHEMERIS_TYPE":"0","FILE":"3285316","LAUNCH_DATE":"2022-01-19","CLASSIFICATION_TYPE":"U","ECCENTRICITY":"0.00269010","CENTER_NAME":"EARTH","TLE_LINE2":"2 51151  53.2177 231.0363 0026901 204.4149 295.9966 15.88981636  2700","OBJECT_TYPE":"PAYLOAD","MEAN_ANOMALY":"295.9966","NORAD_CAT_ID":"51151","REF_FRAME":"TEME","OBJECT_ID":"2022-005AZ","TIME_SYSTEM":"UTC"},{"EPHEMERIS_TYPE":"0","FILE":"3285204","TLE_LINE1":"1 51152U 22005BA  22027.91667824 -.00889186  24044-3 -29524-2 0  9992","PERIOD":"90.625","ELEMENT_SET_NO":"999","SITE":"AFETR","ARG_OF_PERICENTER":"204.3691","COUNTRY_CODE":"US","OBJECT_TYPE":"PAYLOAD","NORAD_CAT_ID":"51152","MEAN_ANOMALY":"295.7810","REF_FRAME":"TEME","TIME_SYSTEM":"UTC","OBJECT_ID":"2022-005BA","LAUNCH_DATE":"2022-01-19","CLASSIFICATION_TYPE":"U","ECCENTRICITY":"0.00268640","CENTER_NAME":"EARTH","TLE_LINE2":"2 51152  53.2177 231.0370 0026864 204.3691 295.7810 15.88970552  2709","GP_ID":"194751496","OBJECT_NAME":"STARLINK-3364","APOAPSIS":"323.124","SEMIMAJOR_AXIS":"6683.305","RCS_SIZE":null,"REV_AT_EPOCH":"270","BSTAR":"-0.00295240000000","INCLINATION":"53.2177","PERIAPSIS":"287.216","MEAN_MOTION":"15.88970552","MEAN_ELEMENT_THEORY":"SGP4","MEAN_MOTION_DOT":"-0.00889186","DECAY_DATE":null,"MEAN_MOTION_DDOT":"0.0002404400000","RA_OF_ASC_NODE":"231.0370","EPOCH":"2022-01-27T22:00:00.999936"}];
